{
  "links" : {
    "next" : "https://api.nasa.gov/neo/rest/v1/feed?start_date=2002-06-23&end_date=2002-06-23&detailed=true&api_key=t0TVs3DtDT2H8Oy2Zy8m2eVrNsAVKAexjcZXUckd",
    "prev" : "https://api.nasa.gov/neo/rest/v1/feed?start_date=2002-06-21&end_date=2002-06-21&detailed=true&api_key=t0TVs3DtDT2H8Oy2Zy8m2eVrNsAVKAexjcZXUckd",
    "self" : "https://api.nasa.gov/neo/rest/v1/feed?start_date=2002-06-22&end_date=2002-06-22&detailed=true&api_key=t0TVs3DtDT2H8Oy2Zy8m2eVrNsAVKAexjcZXUckd"
  },
  "element_count" : 3,
  "near_earth_objects" : {
    "2002-06-22" : [ {
      "links" : {
        "self" : "https://api.nasa.gov/neo/rest/v1/neo/2005604?api_key=t0TVs3DtDT2H8Oy2Zy8m2eVrNsAVKAexjcZXUckd"
      },
      "neo_reference_id" : "2005604",
      "name" : "5604 (1992 FE)",
      "nasa_jpl_url" : "http://ssd.jpl.nasa.gov/sbdb.cgi?sstr=2005604",
      "absolute_magnitude_h" : 17.2,
      "estimated_diameter" : {
        "kilometers" : {
          "estimated_diameter_min" : 0.9650614696,
          "estimated_diameter_max" : 2.1579430484
        },
        "meters" : {
          "estimated_diameter_min" : 965.0614695789,
          "estimated_diameter_max" : 2157.9430484443
        },
        "miles" : {
          "estimated_diameter_min" : 0.5996612104,
          "estimated_diameter_max" : 1.34088323
        },
        "feet" : {
          "estimated_diameter_min" : 3166.2122718533,
          "estimated_diameter_max" : 7079.8658710581
        }
      },
      "is_potentially_hazardous_asteroid" : true,
      "close_approach_data" : [ {
        "close_approach_date" : "2002-06-22",
        "epoch_date_close_approach" : 1024729200000,
        "relative_velocity" : {
          "kilometers_per_second" : "10.5095688787",
          "kilometers_per_hour" : "37834.4479634006",
          "miles_per_hour" : "23508.8546248141"
        },
        "miss_distance" : {
          "astronomical" : "0.076803946",
          "lunar" : "29.8767337799",
          "kilometers" : "11489707",
          "miles" : "7139373"
        },
        "orbiting_body" : "Earth"
      } ],
      "orbital_data" : {
        "orbit_id" : "146",
        "orbit_determination_date" : "2017-05-29 06:18:27",
        "orbit_uncertainty" : "0",
        "minimum_orbit_intersection" : ".0331798",
        "jupiter_tisserand_invariant" : "6.372",
        "epoch_osculation" : "2458000.5",
        "eccentricity" : ".4061499819246546",
        "semi_major_axis" : ".9287966941299322",
        "inclination" : "4.713586625633988",
        "ascending_node_longitude" : "311.9598155095754",
        "orbital_period" : "326.948552003355",
        "perihelion_distance" : ".5515659335973813",
        "perihelion_argument" : "82.5861756257242",
        "aphelion_distance" : "1.306027454662483",
        "perihelion_time" : "2458067.379766705882",
        "mean_anomaly" : "286.359312905382",
        "mean_motion" : "1.10109066944669",
        "equinox" : "J2000"
      }
    }, {
      "links" : {
        "self" : "https://api.nasa.gov/neo/rest/v1/neo/3295788?api_key=t0TVs3DtDT2H8Oy2Zy8m2eVrNsAVKAexjcZXUckd"
      },
      "neo_reference_id" : "3295788",
      "name" : "(2005 UO)",
      "nasa_jpl_url" : "http://ssd.jpl.nasa.gov/sbdb.cgi?sstr=3295788",
      "absolute_magnitude_h" : 22.1,
      "estimated_diameter" : {
        "kilometers" : {
          "estimated_diameter_min" : 0.1010543415,
          "estimated_diameter_max" : 0.2259643771
        },
        "meters" : {
          "estimated_diameter_min" : 101.054341542,
          "estimated_diameter_max" : 225.9643771094
        },
        "miles" : {
          "estimated_diameter_min" : 0.0627922373,
          "estimated_diameter_max" : 0.140407711
        },
        "feet" : {
          "estimated_diameter_min" : 331.5431259047,
          "estimated_diameter_max" : 741.3529669956
        }
      },
      "is_potentially_hazardous_asteroid" : false,
      "close_approach_data" : [ {
        "close_approach_date" : "2002-06-22",
        "epoch_date_close_approach" : 1024729200000,
        "relative_velocity" : {
          "kilometers_per_second" : "20.4935278678",
          "kilometers_per_hour" : "73776.7003242251",
          "miles_per_hour" : "45841.972487572"
        },
        "miss_distance" : {
          "astronomical" : "0.4605122406",
          "lunar" : "179.1392669678",
          "kilometers" : "68891656",
          "miles" : "42807288"
        },
        "orbiting_body" : "Earth"
      } ],
      "orbital_data" : {
        "orbit_id" : "25",
        "orbit_determination_date" : "2016-11-08 06:18:48",
        "orbit_uncertainty" : "0",
        "minimum_orbit_intersection" : ".00222379",
        "jupiter_tisserand_invariant" : "4.672",
        "epoch_osculation" : "2457600.5",
        "eccentricity" : ".5822671547545228",
        "semi_major_axis" : "1.351203284555791",
        "inclination" : "7.708022661390256",
        "ascending_node_longitude" : "19.20835727416944",
        "orbital_period" : "573.6928870021904",
        "perihelion_distance" : ".5644419925625246",
        "perihelion_argument" : "258.5388188750495",
        "aphelion_distance" : "2.137964576549057",
        "perihelion_time" : "2457614.230299457460",
        "mean_anomaly" : "351.3840524840486",
        "mean_motion" : ".6275134451834775",
        "equinox" : "J2000"
      }
    }, {
      "links" : {
        "self" : "https://api.nasa.gov/neo/rest/v1/neo/2475016?api_key=t0TVs3DtDT2H8Oy2Zy8m2eVrNsAVKAexjcZXUckd"
      },
      "neo_reference_id" : "2475016",
      "name" : "475016 (2005 UO)",
      "nasa_jpl_url" : "http://ssd.jpl.nasa.gov/sbdb.cgi?sstr=2475016",
      "absolute_magnitude_h" : 22.1,
      "estimated_diameter" : {
        "kilometers" : {
          "estimated_diameter_min" : 0.1010543415,
          "estimated_diameter_max" : 0.2259643771
        },
        "meters" : {
          "estimated_diameter_min" : 101.054341542,
          "estimated_diameter_max" : 225.9643771094
        },
        "miles" : {
          "estimated_diameter_min" : 0.0627922373,
          "estimated_diameter_max" : 0.140407711
        },
        "feet" : {
          "estimated_diameter_min" : 331.5431259047,
          "estimated_diameter_max" : 741.3529669956
        }
      },
      "is_potentially_hazardous_asteroid" : false,
      "close_approach_data" : [ {
        "close_approach_date" : "2002-06-22",
        "epoch_date_close_approach" : 1024729200000,
        "relative_velocity" : {
          "kilometers_per_second" : "20.4935265693",
          "kilometers_per_hour" : "73776.6956494627",
          "miles_per_hour" : "45841.9695828564"
        },
        "miss_distance" : {
          "astronomical" : "0.4605121977",
          "lunar" : "179.1392364502",
          "kilometers" : "68891640",
          "miles" : "42807284"
        },
        "orbiting_body" : "Earth"
      } ],
      "orbital_data" : {
        "orbit_id" : "27",
        "orbit_determination_date" : "2017-04-06 09:19:05",
        "orbit_uncertainty" : "0",
        "minimum_orbit_intersection" : ".00241332",
        "jupiter_tisserand_invariant" : "4.673",
        "epoch_osculation" : "2458000.5",
        "eccentricity" : ".582335730557626",
        "semi_major_axis" : "1.35078054913835",
        "inclination" : "7.708718200333485",
        "ascending_node_longitude" : "19.20350840174034",
        "orbital_period" : "573.4236810264297",
        "perihelion_distance" : ".5641727712328378",
        "perihelion_argument" : "258.5179779008169",
        "aphelion_distance" : "2.137388327043863",
        "perihelion_time" : "2458187.658448135950",
        "mean_anomaly" : "242.5004206168516",
        "mean_motion" : ".6278080447525278",
        "equinox" : "J2000"
      }
    } ]
  }
}